[{"OBJECT_NAME":"TEVEL2-7","OBJECT_ID":"2025-052AE","EPOCH":"2026-03-09T15:52:01.887744","MEAN_MOTION":15.28414096,"ECCENTRICITY":0.00081048,"INCLINATION":97.4054,"RA_OF_ASC_NODE":324.3041,"ARG_OF_PERICENTER":124.683,"MEAN_ANOMALY":235.5175,"EPHEMERIS_TYPE":0,"CLASSIFICATION_TYPE":"U","NORAD_CAT_ID":63238,"ELEMENT_SET_NO":999,"REV_AT_EPOCH":5480,"BSTAR":0.00069668191,"MEAN_MOTION_DOT":0.00019244,"MEAN_MOTION_DDOT":0},{"OBJECT_NAME":"STARLINK-34342","OBJECT_ID":"2025-120R","EPOCH":"2026-03-09T13:11:37.396896","MEAN_MOTION":15.30196937,"ECCENTRICITY":0.0001218,"INCLINATION":53.1578,"RA_OF_ASC_NODE":117.4182,"ARG_OF_PERICENTER":79.6641,"MEAN_ANOMALY":280.4497,"EPHEMERIS_TYPE":0,"CLASSIFICATION_TYPE":"U","NORAD_CAT_ID":64271,"ELEMENT_SET_NO":999,"REV_AT_EPOCH":4384,"BSTAR":0.0011616,"MEAN_MOTION_DOT":0.00034198,"MEAN_MOTION_DDOT":0}]
